GUARANISAT-1            
1 47931U 98067SH  21098.84172653  .00008066  00000-0  14818-3 0  9995
2 47931  51.6437 325.5274 0003088 129.6190 230.5072 15.50189054  3973
MMSATS-1                
1 47976U 98067SJ  21099.62922948  .00002848  00000-0  59264-4 0  9998
2 47976  51.6455 321.7749 0003054 176.7192 183.3818 15.49287631  2874
